{
  "type": "FeatureCollection",
  "features": [
    {
      "type": "Feature",
      "properties": {
        "name": "Uncommon Demo Farm",
        "location": "Mazowe area, Zimbabwe"
      },
      "geometry": {
        "type": "Polygon",
        "coordinates": [
          [
            [
              30.9698,
              -17.5001
            ],
            [
              30.9712,
              -17.4998
            ],
            [
              30.9726,
              -17.4999
            ],
            [
              30.9741,
              -17.5003
            ],
            [
              30.9743,
              -17.5012
            ],
            [
              30.974,
              -17.5021
            ],
            [
              30.9738,
              -17.5031
            ],
            [
              30.9724,
              -17.5033
            ],
            [
              30.9709,
              -17.5032
            ],
            [
              30.9701,
              -17.5028
            ],
            [
              30.9696,
              -17.5018
            ],
            [
              30.9697,
              -17.5008
            ],
            [
              30.9698,
              -17.5001
            ]
          ]
        ]
      }
    }
  ]
}