{
  "type": "FeatureCollection",
  "features": [
    {"type": "Feature","properties": {"observation_id": "OBS-01","block_id": "L-03","symptom": "Yellowing","severity": "Low","datetime": "2026-09-01T07:15:00","reported_by": "Farmer","notes": "Few lower leaves affected","photo_filename": "photos/yellowing.jpg"},"geometry": {"type": "Point","coordinates": [30.9706,-17.5029]}},
    {"type": "Feature","properties": {"observation_id": "OBS-02","block_id": "L-03","symptom": "Yellowing","severity": "Watch","datetime": "2026-09-03T07:30:00","reported_by": "Farmer","notes": "Spreading toward block edge","photo_filename": "photos/yellowing.jpg"},"geometry": {"type": "Point","coordinates": [30.9709,-17.5026]}},
    {"type": "Feature","properties": {"observation_id": "OBS-03","block_id": "L-03","symptom": "Leaf spots","severity": "Investigate","datetime": "2026-09-05T07:45:00","reported_by": "Farmer","notes": "Dark circular spots on 6-8 plants","photo_filename": "photos/leaf_spots.jpg"},"geometry": {"type": "Point","coordinates": [30.9712,-17.5023]}},
    {"type": "Feature","properties": {"observation_id": "OBS-04","block_id": "L-03","symptom": "Leaf spots","severity": "High","datetime": "2026-09-07T08:00:00","reported_by": "Farmer","notes": "Spreading fast, ~20 plants affected","photo_filename": "photos/leaf_spots.jpg"},"geometry": {"type": "Point","coordinates": [30.9715,-17.502]}},
    {"type": "Feature","properties": {"observation_id": "OBS-05","block_id": "L-03","symptom": "Wilting","severity": "High","datetime": "2026-09-08T08:10:00","reported_by": "Farmer","notes": "Wilting cluster near irrigation line","photo_filename": "photos/wilting.webp"},"geometry": {"type": "Point","coordinates": [30.9718,-17.5018]}},
    {"type": "Feature","properties": {"observation_id": "OBS-06","block_id": "L-03","symptom": "Leaf spots","severity": "Investigate","datetime": "2026-09-06T08:20:00","reported_by": "Farmer","notes": "Second smaller patch, west side","photo_filename": "photos/leaf_spots.jpg"},"geometry": {"type": "Point","coordinates": [30.9703,-17.5024]}},
    {"type": "Feature","properties": {"observation_id": "OBS-07","block_id": "L-02","symptom": "Yellowing","severity": "Low","datetime": "2026-09-02T09:00:00","reported_by": "Farmer","notes": "Isolated, near tank","photo_filename": "photos/yellowing.jpg"},"geometry": {"type": "Point","coordinates": [30.9725,-17.501]}},
    {"type": "Feature","properties": {"observation_id": "OBS-08","block_id": "L-02","symptom": "Yellowing","severity": "Watch","datetime": "2026-09-04T09:15:00","reported_by": "Farmer","notes": "A few more plants turning","photo_filename": "photos/yellowing.jpg"},"geometry": {"type": "Point","coordinates": [30.973,-17.5006]}},
    {"type": "Feature","properties": {"observation_id": "OBS-09","block_id": "L-02","symptom": "Aphid clusters","severity": "Investigate","datetime": "2026-09-06T09:30:00","reported_by": "Farmer","notes": "Visible clusters under leaves","photo_filename": "photos/aphids.jpg"},"geometry": {"type": "Point","coordinates": [30.9735,-17.5003]}},
    {"type": "Feature","properties": {"observation_id": "OBS-10","block_id": "L-02","symptom": "Aphid clusters","severity": "Watch","datetime": "2026-09-08T09:40:00","reported_by": "Farmer","notes": "Smaller cluster, monitoring","photo_filename": "photos/aphids.jpg"},"geometry": {"type": "Point","coordinates": [30.9727,-17.5012]}},
    {"type": "Feature","properties": {"observation_id": "OBS-11","block_id": "L-01","symptom": "Stunted growth","severity": "Low","datetime": "2026-09-01T10:00:00","reported_by": "Farmer","notes": "Slower growth vs rest of block","photo_filename": "photos/stunted_growth.jpg"},"geometry": {"type": "Point","coordinates": [30.9705,-17.5005]}},
    {"type": "Feature","properties": {"observation_id": "OBS-12","block_id": "L-01","symptom": "Yellowing","severity": "Watch","datetime": "2026-09-05T10:20:00","reported_by": "Farmer","notes": "Patchy discoloration","photo_filename": "photos/yellowing.jpg"},"geometry": {"type": "Point","coordinates": [30.971,-17.5009]}},
    {"type": "Feature","properties": {"observation_id": "OBS-13","block_id": "L-01","symptom": "Stunted growth","severity": "Low","datetime": "2026-09-07T10:30:00","reported_by": "Farmer","notes": "Similar pattern to earlier obs","photo_filename": "photos/stunted_growth.jpg"},"geometry": {"type": "Point","coordinates": [30.9702,-17.5011]}},
    {"type": "Feature","properties": {"observation_id": "OBS-14","block_id": "C-01","symptom": "Leaf spots","severity": "Watch","datetime": "2026-09-03T11:00:00","reported_by": "Farmer","notes": "Small spots near tree-line edge","photo_filename": "photos/leaf_spots.jpg"},"geometry": {"type": "Point","coordinates": [30.9728,-17.5022]}},
    {"type": "Feature","properties": {"observation_id": "OBS-15","block_id": "C-01","symptom": "Caterpillar damage","severity": "Investigate","datetime": "2026-09-06T11:15:00","reported_by": "Farmer","notes": "Chewed leaf margins, larvae visible","photo_filename": "photos/caterpillar_damage.jpg"},"geometry": {"type": "Point","coordinates": [30.9733,-17.5026]}},
    {"type": "Feature","properties": {"observation_id": "OBS-16","block_id": "C-01","symptom": "Caterpillar damage","severity": "High","datetime": "2026-09-08T11:30:00","reported_by": "Farmer","notes": "Heavy damage, ~15 plants","photo_filename": "photos/caterpillar_damage.jpg"},"geometry": {"type": "Point","coordinates": [30.9736,-17.5028]}},
    {"type": "Feature","properties": {"observation_id": "OBS-17","block_id": "C-01","symptom": "Leaf spots","severity": "Low","datetime": "2026-09-02T11:45:00","reported_by": "Farmer","notes": "Early, single plant","photo_filename": "photos/leaf_spots.jpg"},"geometry": {"type": "Point","coordinates": [30.9721,-17.5019]}},
    {"type": "Feature","properties": {"observation_id": "OBS-18","block_id": "L-03","symptom": "Yellowing","severity": "Watch","datetime": "2026-09-02T07:20:00","reported_by": "Farmer","notes": "South edge, near access road","photo_filename": "photos/yellowing.jpg"},"geometry": {"type": "Point","coordinates": [30.9708,-17.5031]}},
    {"type": "Feature","properties": {"observation_id": "OBS-19","block_id": "L-02","symptom": "Yellowing","severity": "Low","datetime": "2026-09-01T09:05:00","reported_by": "Farmer","notes": "Far corner, minor","photo_filename": "photos/yellowing.jpg"},"geometry": {"type": "Point","coordinates": [30.9738,-17.5008]}},
    {"type": "Feature","properties": {"observation_id": "OBS-20","block_id": "C-01","symptom": "Caterpillar damage","severity": "Watch","datetime": "2026-09-04T11:20:00","reported_by": "Farmer","notes": "First sighting, low count","photo_filename": "photos/caterpillar_damage.jpg"},"geometry": {"type": "Point","coordinates": [30.9725,-17.5029]}}
  ]
}